[Satellite]
VERSION=1.1
NAME=VNREDSAT 1
NICKNAME=VNREDSAT 1
TLE1=1 39160U 13021B   15055.52734395  .00000696  00000-0  14511-3 0  9996
TLE2=2 39160  98.1594 133.5166 0000814  95.5842 264.5456 14.62962350 96250
